[{"OBJECT_NAME":"ONEWEB-0048","OBJECT_ID":"2020-008Y","EPOCH":"2026-03-09T22:56:17.349504","MEAN_MOTION":13.10369925,"ECCENTRICITY":0.00018929,"INCLINATION":87.8769,"RA_OF_ASC_NODE":56.0465,"ARG_OF_PERICENTER":88.3451,"MEAN_ANOMALY":271.7893,"EPHEMERIS_TYPE":0,"CLASSIFICATION_TYPE":"U","NORAD_CAT_ID":45153,"ELEMENT_SET_NO":999,"REV_AT_EPOCH":29481,"BSTAR":0.0017144435,"MEAN_MOTION_DOT":6.11e-6,"MEAN_MOTION_DDOT":0},{"OBJECT_NAME":"COSMOS 2251 DEB","OBJECT_ID":"1993-036ASX","EPOCH":"2026-03-07T12:01:51.396384","MEAN_MOTION":13.71341482,"ECCENTRICITY":0.03498521,"INCLINATION":74.1151,"RA_OF_ASC_NODE":3.2448,"ARG_OF_PERICENTER":79.1097,"MEAN_ANOMALY":284.9176,"EPHEMERIS_TYPE":0,"CLASSIFICATION_TYPE":"U","NORAD_CAT_ID":35825,"ELEMENT_SET_NO":999,"REV_AT_EPOCH":83670,"BSTAR":0.0023246303,"MEAN_MOTION_DOT":3.208e-5,"MEAN_MOTION_DDOT":0}]
